{
  "65641": {
    "noradId": "65641",
    "tle": [
      "1 65641C 25210V   25334.78104167  .00035085  00000+0  11825-2 0  3345",
      "2 65641  53.1603  46.2712 0001135  80.2404 183.8280 15.30156298    13"
    ]
  },
  "65642": {
    "noradId": "65642",
    "tle": [
      "1 65642C 25210W   25334.78451389  .00014548  00000+0  49037-3 0  3345",
      "2 65642  53.1604  46.1844 0001222  85.2191 232.8951 15.30173257    19"
    ]
  },
  "65643": {
    "noradId": "65643",
    "tle": [
      "1 65643C 25210X   25334.78104167 -.00057496  00000+0 -19395-2 0  3349",
      "2 65643  53.1606  46.1877 0001332  80.3955 224.4589 15.30221014    13"
    ]
  },
  "65644": {
    "noradId": "65644",
    "tle": [
      "1 65644C 25210Y   25334.77826389  .00024274  00000+0  81827-3 0  3342",
      "2 65644  53.1589  46.8114 0001149  95.5341 245.6745 15.30161884    15"
    ]
  },
  "65645": {
    "noradId": "65645",
    "tle": [
      "1 65645C 25210Z   25334.78104167  .00027814  00000+0  93747-3 0  3344",
      "2 65645  53.1591  46.8333 0001130  89.8224 249.2481 15.30162764    13"
    ]
  },
  "65646": {
    "noradId": "65646",
    "tle": [
      "1 65646C 25210AA  25334.77826389  .00015879  00000+0  53522-3 0  3346",
      "2 65646  53.1582  46.7415 0001231  85.9971 290.1026 15.30172364    19"
    ]
  },
  "65647": {
    "noradId": "65647",
    "tle": [
      "1 65647C 25210AB  25334.78243056  .00050340  00000+0  16972-2 0  3341",
      "2 65647  53.1581  46.6633 0001256  92.3964 335.7635 15.30131198    13"
    ]
  },
  "65648": {
    "noradId": "65648",
    "tle": [
      "1 65648C 25210AC  25334.77756944  .00021820  00000+0  73540-3 0  3342",
      "2 65648  53.1586  46.5905 0001193  85.2864   2.6023 15.30170975    17"
    ]
  },
  "65649": {
    "noradId": "65649",
    "tle": [
      "1 65649C 25210AD  25334.78104167  .00018023  00000+0  60748-3 0  3345",
      "2 65649  53.1583  46.6451 0001245  78.6487 353.4846 15.30171927    15"
    ]
  },
  "65652": {
    "noradId": "65652",
    "tle": [
      "1 65652C 25211A   25334.78451389 -.00010393  00000+0 -72175-3 0  3342",
      "2 65652  97.6044  16.5144 0001541  90.3527 356.2900 15.05656063    17"
    ]
  },
  "65653": {
    "noradId": "65653",
    "tle": [
      "1 65653C 25211B   25334.78104167 -.00005005  00000+0 -34758-3 0  3341",
      "2 65653  97.6039  16.5243 0001659  85.8613  11.9383 15.05654547    12"
    ]
  },
  "65654": {
    "noradId": "65654",
    "tle": [
      "1 65654C 25211C   25334.77895833 -.00002076  00000+0 -14427-3 0  3344",
      "2 65654  97.6037  16.5367 0000945 103.7218  12.8545 15.05631530    13"
    ]
  },
  "65655": {
    "noradId": "65655",
    "tle": [
      "1 65655C 25211D   25334.78104167 -.00009765  00000+0 -67815-3 0  3340",
      "2 65655  97.6040  16.5176 0001260  91.6513 351.1754 15.05656150    16"
    ]
  },
  "65656": {
    "noradId": "65656",
    "tle": [
      "1 65656C 25211E   25334.77826389 -.00010738  00000+0 -74568-3 0  3342",
      "2 65656  97.6038  16.5283 0001332  76.5764  21.1807 15.05660412    12"
    ]
  },
  "65657": {
    "noradId": "65657",
    "tle": [
      "1 65657C 25211F   25334.78520833 -.00010088  00000+0 -70061-3 0  3341",
      "2 65657  97.6038  16.5492 0000896  91.8178  73.5676 15.05655465    15"
    ]
  },
  "65658": {
    "noradId": "65658",
    "tle": [
      "1 65658C 25211G   25334.77826389 -.00011453  00000+0 -79540-3 0  3344",
      "2 65658  97.6040  16.5558 0000607  96.2999  61.4669 15.05656391    19"
    ]
  },
  "65659": {
    "noradId": "65659",
    "tle": [
      "1 65659C 25211H   25334.78312500 -.00009664  00000+0 -67119-3 0  3341",
      "2 65659  97.6039  16.5539 0000473 135.5186  33.5796 15.05654717    14"
    ]
  },
  "65660": {
    "noradId": "65660",
    "tle": [
      "1 65660C 25211J   25334.77895833 -.00021110  00000+0 -14658-2 0  3346",
      "2 65660  97.6045  16.5626 0001098  89.1487  87.3550 15.05672963    10"
    ]
  },
  "65661": {
    "noradId": "65661",
    "tle": [
      "1 65661C 25211K   25334.78312500 -.00014632  00000+0 -10162-2 0  3340",
      "2 65661  97.6050  16.5733 0000755  93.0686 121.0236 15.05660879    10"
    ]
  },
  "65662": {
    "noradId": "65662",
    "tle": [
      "1 65662C 25211L   25334.78034722 -.00010093  00000+0 -70094-3 0  3346",
      "2 65662  97.6054  16.5770 0000282 115.1924  98.8483 15.05655439    13"
    ]
  },
  "65663": {
    "noradId": "65663",
    "tle": [
      "1 65663C 25211M   25334.78451389 -.00015161  00000+0 -10529-2 0  3346",
      "2 65663  97.6060  16.5877 0001004  94.1193 157.4915 15.05661341    17"
    ]
  },
  "65664": {
    "noradId": "65664",
    "tle": [
      "1 65664C 25211N   25334.78312500 -.00018218  00000+0 -12657-2 0  3348",
      "2 65664  97.6064  16.5928 0000996  95.7840 163.3761 15.05650463    12"
    ]
  },
  "65665": {
    "noradId": "65665",
    "tle": [
      "1 65665C 25211P   25334.78381944 -.00009328  00000+0 -64785-3 0  3349",
      "2 65665  97.6067  16.5997 0000860  90.6727 187.1658 15.05654461    11"
    ]
  },
  "65666": {
    "noradId": "65666",
    "tle": [
      "1 65666C 25211Q   25334.78034722 -.00010989  00000+0 -76319-3 0  3340",
      "2 65666  97.6069  16.6026 0001102  94.3637 179.6625 15.05656262    10"
    ]
  },
  "65667": {
    "noradId": "65667",
    "tle": [
      "1 65667C 25211R   25334.78104167 -.00011581  00000+0 -80432-3 0  3342",
      "2 65667  97.6069  16.6097 0000892  92.3122 200.4743 15.05656528    10"
    ]
  },
  "65668": {
    "noradId": "65668",
    "tle": [
      "1 65668C 25211S   25334.78381944 -.00015222  00000+0 -10571-2 0  3345",
      "2 65668  97.6068  16.6189 0001432  91.7971 231.0292 15.05661801    17"
    ]
  },
  "65669": {
    "noradId": "65669",
    "tle": [
      "1 65669C 25211T   25334.78312500 -.00012978  00000+0 -90088-3 0  3345",
      "2 65669  97.6066  16.6250 0001770  92.0165 241.9556 15.05676093    11"
    ]
  },
  "65670": {
    "noradId": "65670",
    "tle": [
      "1 65670C 25211U   25334.77965278 -.00016057  00000+0 -11151-2 0  3347",
      "2 65670  97.6063  16.6282 0001602  91.7129 238.5378 15.05662838    11"
    ]
  },
  "65671": {
    "noradId": "65671",
    "tle": [
      "1 65671C 25211V   25334.77826389 -.00015190  00000+0 -10549-2 0  3344",
      "2 65671  97.6057  16.6397 0001381  92.8090 259.9109 15.05662022    19"
    ]
  },
  "65672": {
    "noradId": "65672",
    "tle": [
      "1 65672C 25211W   25334.78173611 -.00012505  00000+0 -86847-3 0  3341",
      "2 65672  97.6059  16.6372 0000738 115.2775 241.2572 15.05658293    13"
    ]
  },
  "65673": {
    "noradId": "65673",
    "tle": [
      "1 65673C 25211X   25334.78381944 -.00011084  00000+0 -76977-3 0  3346",
      "2 65673  97.6048  16.6578 0001545  91.5151 321.2965 15.05656682    16"
    ]
  },
  "65674": {
    "noradId": "65674",
    "tle": [
      "1 65674C 25211Y   25334.78381944 -.00023586  00000+0 -16376-2 0  3343",
      "2 65674  97.6045  16.6641 0001637  88.3271 339.4482 15.05679568    17"
    ]
  },
  "65675": {
    "noradId": "65675",
    "tle": [
      "1 65675C 25211Z   25334.77826389 -.00016771  00000+0 -11647-2 0  3344",
      "2 65675  97.6052  16.6459 0001673  92.9498 274.7656 15.05664435    16"
    ]
  },
  "65676": {
    "noradId": "65676",
    "tle": [
      "1 65676C 25212A   25334.78173611  .00013240  00000+0  44631-3 0  3346",
      "2 65676  53.1589  84.8594 0001257  91.2036 266.0554 15.30173708    11"
    ]
  },
  "65677": {
    "noradId": "65677",
    "tle": [
      "1 65677C 25212B   25334.77895833  .00022848  00000+0  77019-3 0  3343",
      "2 65677  53.1584  85.0497 0001235  78.7267 175.9757 15.30163830    12"
    ]
  },
  "65678": {
    "noradId": "65678",
    "tle": [
      "1 65678C 25212C   25334.78243056  .00039356  00000+0  13278-2 0  3347",
      "2 65678  53.1592  85.3888 0001344  89.6665   3.9536 15.30119981    16"
    ]
  },
  "65679": {
    "noradId": "65679",
    "tle": [
      "1 65679C 25212D   25334.78381944  .00016319  00000+0  55004-3 0  3345",
      "2 65679  53.1587  85.3117 0001306  89.4057  46.6718 15.30173202    19"
    ]
  },
  "65680": {
    "noradId": "65680",
    "tle": [
      "1 65680C 25212E   25334.77965278  .00001204  00000+0  40574-4 0  3348",
      "2 65680  53.1592  84.8002 0001381  85.7117 294.9304 15.30196180    12"
    ]
  },
  "65681": {
    "noradId": "65681",
    "tle": [
      "1 65681C 25212F   25334.77895833  .00014538  00000+0  49005-3 0  3349",
      "2 65681  53.1580  85.1176 0001225  91.1479 128.6581 15.30173013    15"
    ]
  },
  "65682": {
    "noradId": "65682",
    "tle": [
      "1 65682C 25212G   25334.78451389  .00006585  00000+0  22193-3 0  3347",
      "2 65682  53.1593  84.7306 0001284  80.6346 350.0909 15.30184133    11"
    ]
  },
  "65683": {
    "noradId": "65683",
    "tle": [
      "1 65683C 25212H   25334.78381944  .00022857  00000+0  77053-3 0  3342",
      "2 65683  53.1591  84.9222 0001338  89.7610 244.0893 15.30162022    10"
    ]
  },
  "65684": {
    "noradId": "65684",
    "tle": [
      "1 65684C 25212J   25334.78451389  .00014490  00000+0  48841-3 0  3341",
      "2 65684  53.1579  85.1384 0001217  80.2682 146.8860 15.30174163    12"
    ]
  },
  "65685": {
    "noradId": "65685",
    "tle": [
      "1 65685C 25212K   25334.78451389  .00019654  00000+0  66247-3 0  3349",
      "2 65685  53.1588  85.3419 0001364  85.9546  36.5077 15.30168256    19"
    ]
  },
  "65686": {
    "noradId": "65686",
    "tle": [
      "1 65686C 25212L   25334.78104167  .00021274  00000+0  53091-3 0  3343",
      "2 65686  53.1581  81.4155 0001271  80.4583 198.2093 15.39590343    14"
    ]
  },
  "65687": {
    "noradId": "65687",
    "tle": [
      "1 65687C 25212M   25334.78451389  .00007300  00000+0  24605-3 0  3348",
      "2 65687  53.1592  84.8819 0001302  92.0148 263.1041 15.30180908    10"
    ]
  }
}